NORAD_CAT_ID,OBJECT_NAME,OBJECT_TYPE,EPOCH,MEAN_MOTION,ECCENTRICITY,INCLINATION,RA_OF_ASC_NODE,ARG_OF_PERICENTER,MEAN_ANOMALY,BSTAR,MEAN_MOTION_DOT,MEAN_MOTION_DDOT,TLE_LINE0,TLE_LINE1,TLE_LINE2,SEMIMAJOR_AXIS,PERIOD,APOGEE,PERIGEE,DECAYED
49442.0,STARLINK-3098,PAYLOAD,2024-05-29 12:45:32,15.08840942,0.0001286,53.2172,243.3059,90.8498,269.2642,-2.3512e-05,-6.62e-06,0.0,0 STARLINK-3098,1 49442U 21104AL  24150.53163182 -.00000662  00000-0 -23512-4 0  9995,2 49442  53.2172 243.3059 0001286  90.8498 269.2642 15.08840942140913,6917.878,95.437,540.632,538.853,0.0
49442.0,STARLINK-3098,PAYLOAD,2024-05-30 11:00:56,15.08844204,0.0001261,53.2171,239.1442,97.6306,262.4829,0.0001072,1.419e-05,0.0,0 STARLINK-3098,1 49442U 21104AL  24151.45898537  .00001419  00000-0  10720-3 0  9991,2 49442  53.2171 239.1442 0001261  97.6306 262.4829 15.08844204141050,6917.868,95.437,540.605,538.86,0.0
49442.0,STARLINK-3098,PAYLOAD,2024-05-30 15:47:05,15.08847848,0.0001272,53.2171,238.2507,98.7164,261.3972,0.00012249,1.662e-05,0.0,0 STARLINK-3098,1 49442U 21104AL  24151.65770202  .00001662  00000-0  12249-3 0  9999,2 49442  53.2171 238.2507 0001272  98.7164 261.3972 15.08847848142165,6917.856,95.437,540.601,538.841,0.0
49442.0,STARLINK-3098,PAYLOAD,2024-05-31 10:51:43,15.08836988,0.0001216,53.2169,234.6779,91.9569,268.1563,4.4438e-05,4.19e-06,0.0,0 STARLINK-3098,1 49442U 21104AL  24152.45259103  .00000419  00000-0  44438-4 0  9995,2 49442  53.2169 234.6779 0001216  91.9569 268.1563 15.08836988142282,6917.89,95.438,540.596,538.913,0.0
49442.0,STARLINK-3098,PAYLOAD,2024-06-01 12:17:54,15.08837785,0.0001214,53.2159,229.9242,91.2855,268.8276,-6.4029e-05,-1.307e-05,0.0,0 STARLINK-3098,1 49442U 21104AL  24153.51243593 -.00001307  00000-0 -64029-4 0  9996,2 49442  53.2159 229.9242 0001214  91.2855 268.8276 15.08837785142444,6917.887,95.438,540.592,538.912,0.0
49442.0,STARLINK-3098,PAYLOAD,2024-06-02 13:44:04,15.08836285,0.000147,53.2175,225.1692,93.5012,266.6148,9.2575e-05,1.186e-05,0.0,0 STARLINK-3098,1 49442U 21104AL  24154.57227629  .00001186  00000-0  92575-4 0  9995,2 49442  53.2175 225.1692 0001470  93.5012 266.6148 15.08836285141529,6917.892,95.438,540.774,538.74,0.0
49442.0,STARLINK-3098,PAYLOAD,2024-06-02 21:40:59,15.08843122,0.0001479,53.2177,223.682,90.3505,269.7657,0.00010099,1.32e-05,0.0,0 STARLINK-3098,1 49442U 21104AL  24154.90347198  .00001320  00000-0  10099-3 0  9996,2 49442  53.2177 223.6820 0001479  90.3505 269.7657 15.08843122141570,6917.871,95.437,540.759,538.713,0.0
49442.0,STARLINK-3098,PAYLOAD,2024-06-03 13:34:51,15.08837586,0.0001539,53.2173,220.7072,95.3652,264.7516,0.00011265,1.505e-05,0.0,0 STARLINK-3098,1 49442U 21104AL  24155.56587713  .00001505  00000-0  11265-3 0  9999,2 49442  53.2173 220.7072 0001539  95.3652 264.7516 15.08837586141675,6917.888,95.438,540.817,538.688,0.0
49442.0,STARLINK-3098,PAYLOAD,2024-06-03 21:31:46,15.08850198,0.0001428,53.217,219.2183,79.9126,280.2027,0.00014779,2.066e-05,0.0,0 STARLINK-3098,1 49442U 21104AL  24155.89706708  .00002066  00000-0  14779-3 0  9998,2 49442  53.2170 219.2183 0001428  79.9126 280.2027 15.08850198141729,6917.849,95.437,540.702,538.726,0.0
49442.0,STARLINK-3098,PAYLOAD,2024-06-04 10:14:52,15.08834226,0.0001204,53.217,216.8422,86.409,273.704,3.3043e-05,2.38e-06,0.0,0 STARLINK-3098,1 49442U 21104AL  24156.42700065  .00000238  00000-0  33043-4 0  9993,2 49442  53.2170 216.8422 0001204  86.4090 273.7040 15.08834226142887,6917.898,95.438,540.596,538.93,0.0
49442.0,STARLINK-3098,PAYLOAD,2024-06-04 21:22:33,15.08852421,0.0001373,53.2161,214.7599,88.2509,271.8641,9.1863e-05,1.175e-05,0.0,0 STARLINK-3098,1 49442U 21104AL  24156.89066550  .00001175  00000-0  91863-4 0  9993,2 49442  53.2161 214.7599 0001373  88.2509 271.8641 15.08852421141872,6917.842,95.437,540.657,538.758,0.0
49442.0,STARLINK-3098,PAYLOAD,2024-06-05 03:44:06,15.08842587,0.0001984,53.2169,213.5694,92.6775,267.4444,9.6767e-05,1.252e-05,0.0,0 STARLINK-3098,1 49442U 21104AL  24157.15563380  .00001252  00000-0  96767-4 0  9990,2 49442  53.2169 213.5694 0001984  92.6775 267.4444 15.08842587142993,6917.872,95.437,541.11,538.365,0.0
49442.0,STARLINK-3098,PAYLOAD,2024-06-05 10:05:39,15.08838481,0.0001651,53.2172,212.3785,97.403,262.715,5.0125e-05,5.1e-06,0.0,0 STARLINK-3098,1 49442U 21104AL  24157.42059598  .00000510  00000-0  50125-4 0  9995,2 49442  53.2172 212.3785 0001651  97.4030 262.7150 15.08838481141958,6917.885,95.438,540.892,538.608,0.0
49442.0,STARLINK-3098,PAYLOAD,2024-06-05 21:13:21,15.08846725,0.0001558,53.2176,210.2981,95.7388,264.3781,4.7275e-06,-2.13e-06,0.0,0 STARLINK-3098,1 49442U 21104AL  24157.88427117 -.00000213  00000-0  47275-5 0  9995,2 49442  53.2176 210.2981 0001558  95.7388 264.3781 15.08846725142027,6917.86,95.437,540.803,538.647,0.0
49442.0,STARLINK-3098,PAYLOAD,2024-06-06 03:34:53,15.08837151,0.0001288,53.2175,209.1088,100.6131,259.5006,0.000118,1.59e-05,0.0,0 STARLINK-3098,1 49442U 21104AL  24158.14923299  .00001590  00000-0  11800-3 0  9998,2 49442  53.2175 209.1088 0001288 100.6131 259.5006 15.08837151143146,6917.889,95.438,540.645,538.863,0.0
49442.0,STARLINK-3098,PAYLOAD,2024-06-06 09:56:25,15.08846663,0.0001438,53.2176,207.9199,97.9551,262.1604,0.00017558,2.508e-05,0.0,0 STARLINK-3098,1 49442U 21104AL  24158.41418691  .00002508  00000-0  17558-3 0  9999,2 49442  53.2176 207.9199 0001438  97.9551 262.1604 15.08846663143183,6917.86,95.437,540.72,538.73,0.0
49442.0,STARLINK-3098,PAYLOAD,2024-06-07 09:47:13,15.08832145,0.0001407,53.2177,203.459,95.5597,264.5556,4.3805e-05,4.09e-06,0.0,0 STARLINK-3098,1 49442U 21104AL  24159.40779843  .00000409  00000-0  43805-4 0  9991,2 49442  53.2177 203.4590 0001407  95.5597 264.5556 15.08832145143339,6917.904,95.438,540.743,538.796,0.0
49442.0,STARLINK-3098,PAYLOAD,2024-06-08 03:16:27,15.08841735,0.000139,53.2154,200.1866,98.1995,261.9155,2.2352e-05,6.8e-07,0.0,0 STARLINK-3098,1 49442U 21104AL  24160.13643463  .00000068  00000-0  22352-4 0  9996,2 49442  53.2154 200.1866 0001390  98.1995 261.9155 15.08841735143449,6917.875,95.437,540.702,538.779,0.0
49442.0,STARLINK-3098,PAYLOAD,2024-06-08 09:38:00,15.08844488,0.000131,53.2153,198.9989,95.4149,264.6993,6.2574e-05,7.08e-06,0.0,0 STARLINK-3098,1 49442U 21104AL  24160.40139174  .00000708  00000-0  62574-4 0  9996,2 49442  53.2153 198.9989 0001310  95.4149 264.6993 15.08844488142404,6917.867,95.437,540.638,538.825,0.0
49442.0,STARLINK-3098,PAYLOAD,2024-06-09 11:04:11,15.08821411,0.0001114,53.216,194.2432,87.4725,272.6395,0.00012868,1.76e-05,0.0,0 STARLINK-3098,1 49442U 21104AL  24161.46124894  .00001760  00000-0  12868-3 0  9995,2 49442  53.2160 194.2432 0001114  87.4725 272.6395 15.08821411143640,6917.937,95.439,540.573,539.032,0.0
49442.0,STARLINK-3098,PAYLOAD,2024-06-09 19:01:07,15.08827497,0.0001121,53.2161,192.7573,93.0107,267.1013,6.0826e-05,6.8e-06,0.0,0 STARLINK-3098,1 49442U 21104AL  24161.79244871  .00000680  00000-0  60826-4 0  9997,2 49442  53.2161 192.7573 0001121  93.0107 267.1013 15.08827497142617,6917.919,95.438,540.559,539.008,0.0
49442.0,STARLINK-3098,PAYLOAD,2024-06-10 10:54:58,15.08839161,0.0001111,53.2158,189.7834,96.3175,263.7944,7.1563e-05,8.51e-06,0.0,0 STARLINK-3098,1 49442U 21104AL  24162.45484302  .00000851  00000-0  71563-4 0  9996,2 49442  53.2158 189.7834 0001111  96.3175 263.7944 15.08839161143795,6917.883,95.438,540.517,538.979,0.0
49442.0,STARLINK-3098,PAYLOAD,2024-06-11 10:45:45,15.08841655,0.0001135,53.2161,185.3198,96.0415,264.0706,0.00020054,2.905e-05,0.0,0 STARLINK-3098,1 49442U 21104AL  24163.44844027  .00002905  00000-0  20054-3 0  9990,2 49442  53.2161 185.3198 0001135  96.0415 264.0706 15.08841655142862,6917.875,95.437,540.526,538.955,0.0
49442.0,STARLINK-3098,PAYLOAD,2024-06-12 05:50:23,15.08841442,0.0001197,53.2163,181.7528,98.9312,261.1816,0.0001042,1.371e-05,0.0,0 STARLINK-3098,1 49442U 21104AL  24164.24332302  .00001371  00000-0  10420-3 0  9999,2 49442  53.2163 181.7528 0001197  98.9312 261.1816 15.08841442144064,6917.876,95.437,540.569,538.913,0.0
49442.0,STARLINK-3098,PAYLOAD,2024-06-12 07:25:46,15.08841227,0.0001243,53.2168,181.4553,96.7107,263.4027,9.7408e-05,1.263e-05,0.0,0 STARLINK-3098,1 49442U 21104AL  24164.30956346  .00001263  00000-0  97408-4 0  9998,2 49442  53.2168 181.4553 0001243  96.7107 263.4027 15.08841227142994,6917.877,95.437,540.602,538.882,0.0
49442.0,STARLINK-3098,PAYLOAD,2024-06-13 07:16:33,15.08844642,0.0001245,53.2167,176.9946,95.7136,264.3998,2.6736e-05,1.38e-06,0.0,0 STARLINK-3098,1 49442U 21104AL  24165.30315985  .00000138  00000-0  26736-4 0  9993,2 49442  53.2167 176.9946 0001245  95.7136 264.3998 15.08844642144220,6917.866,95.437,540.592,538.87,0.0
49442.0,STARLINK-3098,PAYLOAD,2024-06-14 07:07:20,15.08836524,0.0001136,53.216,172.5338,91.2556,268.8566,3.2388e-05,2.28e-06,0.0,0 STARLINK-3098,1 49442U 21104AL  24166.29676321  .00000228  00000-0  32388-4 0  9996,2 49442  53.2160 172.5338 0001136  91.2556 268.8566 15.08836524143292,6917.891,95.438,540.542,538.97,0.0
49442.0,STARLINK-3098,PAYLOAD,2024-06-15 06:58:07,15.08840543,0.000116,53.2164,168.0739,89.9884,270.1241,5.2733e-05,5.52e-06,0.0,0 STARLINK-3098,1 49442U 21104AL  24167.29036117  .00000552  00000-0  52733-4 0  9996,2 49442  53.2164 168.0739 0001160  89.9884 270.1241 15.08840543143445,6917.879,95.438,540.546,538.941,0.0
49442.0,STARLINK-3098,PAYLOAD,2024-06-15 16:30:25,15.08842851,0.0001162,53.2166,166.2897,89.5668,270.5458,7.6552e-05,9.31e-06,0.0,0 STARLINK-3098,1 49442U 21104AL  24167.68779897  .00000931  00000-0  76552-4 0  9994,2 49442  53.2166 166.2897 0001162  89.5668 270.5458 15.08842851143505,6917.872,95.437,540.541,538.933,0.0
49442.0,STARLINK-3098,PAYLOAD,2024-06-16 06:48:54,15.08834306,0.0001303,53.2176,163.615,93.282,266.8321,5.544e-05,5.94e-06,0.0,0 STARLINK-3098,1 49442U 21104AL  24168.28396665  .00000594  00000-0  55440-4 0  9997,2 49442  53.2176 163.6150 0001303  93.2820 266.8321 15.08834306143590,6917.898,95.438,540.664,538.861,0.0
